start=new Date('2022-08-11T00:00:00.000Z').valueOf();
sats=[{"EPHEMERIS_TYPE":"0","DECAY_DATE":null,"COUNTRY_CODE":"US","APOAPSIS":"541.097","LAUNCH_DATE":"2022-03-09","NORAD_CAT_ID":"51975","ELEMENT_SET_NO":"999","GP_ID":"209997403","ECCENTRICITY":"0.00020510","BSTAR":"-0.00226040000000","MEAN_ANOMALY":"14.5100","REV_AT_EPOCH":"130","OBJECT_TYPE":"PAYLOAD","TIME_SYSTEM":"UTC","INCLINATION":"53.2189","FILE":"3533963","ARG_OF_PERICENTER":"60.0692","PERIAPSIS":"538.260","EPOCH":"2022-08-10T22:00:00.999936","RCS_SIZE":"LARGE","MEAN_ELEMENT_THEORY":"SGP4","SITE":"AFETR","REF_FRAME":"TEME","CLASSIFICATION_TYPE":"U","OBJECT_NAME":"STARLINK-3674","TLE_LINE2":"2 51975  53.2189 135.4425 0002051  60.0692  14.5100 15.08861906  1301","TLE_LINE1":"1 51975U 22025V   22222.91667824 -.00036105  00000-0 -22604-2 0  9994","CENTER_NAME":"EARTH","RA_OF_ASC_NODE":"135.4425","OBJECT_ID":"2022-025V","PERIOD":"95.436","MEAN_MOTION_DDOT":"0.0000000000000","MEAN_MOTION":"15.08861906","SEMIMAJOR_AXIS":"6917.813","MEAN_MOTION_DOT":"-0.00036105"},{"CLASSIFICATION_TYPE":"U","OBJECT_NAME":"STARLINK-3663","TLE_LINE2":"2 51976  53.2196 145.4575 0002208  65.2614  19.4905 15.08843225  1303","SITE":"AFETR","REF_FRAME":"TEME","RCS_SIZE":"LARGE","MEAN_ELEMENT_THEORY":"SGP4","SEMIMAJOR_AXIS":"6917.871","MEAN_MOTION_DOT":"-0.00024067","MEAN_MOTION":"15.08843225","OBJECT_ID":"2022-025W","PERIOD":"95.437","MEAN_MOTION_DDOT":"0.0000000000000","TLE_LINE1":"1 51976U 22025W   22222.91667824 -.00024067  00000-0 -14989-2 0  9996","CENTER_NAME":"EARTH","RA_OF_ASC_NODE":"145.4575","GP_ID":"209997655","ECCENTRICITY":"0.00022080","ELEMENT_SET_NO":"999","LAUNCH_DATE":"2022-03-09","NORAD_CAT_ID":"51976","EPHEMERIS_TYPE":"0","DECAY_DATE":null,"COUNTRY_CODE":"US","APOAPSIS":"541.263","EPOCH":"2022-08-10T22:00:00.999936","PERIAPSIS":"538.208","TIME_SYSTEM":"UTC","INCLINATION":"53.2196","ARG_OF_PERICENTER":"65.2614","FILE":"3533963","BSTAR":"-0.00149890000000","REV_AT_EPOCH":"130","MEAN_ANOMALY":"19.4905","OBJECT_TYPE":"PAYLOAD"},{"APOAPSIS":"540.962","COUNTRY_CODE":"US","DECAY_DATE":null,"EPHEMERIS_TYPE":"0","NORAD_CAT_ID":"51977","LAUNCH_DATE":"2022-03-09","ELEMENT_SET_NO":"999","ECCENTRICITY":"0.00017990","GP_ID":"209997884","OBJECT_TYPE":"PAYLOAD","MEAN_ANOMALY":"26.5886","BSTAR":"-0.00164780000000","REV_AT_EPOCH":"130","FILE":"3533963","ARG_OF_PERICENTER":"68.1807","INCLINATION":"53.2171","TIME_SYSTEM":"UTC","PERIAPSIS":"538.473","EPOCH":"2022-08-10T22:00:00.999936","MEAN_ELEMENT_THEORY":"SGP4","RCS_SIZE":"LARGE","REF_FRAME":"TEME","SITE":"AFETR","TLE_LINE2":"2 51977  53.2171 125.4611 0001799  68.1807  26.5886 15.08849204  1306","OBJECT_NAME":"STARLINK-3660","CLASSIFICATION_TYPE":"U","RA_OF_ASC_NODE":"125.4611","CENTER_NAME":"EARTH","TLE_LINE1":"1 51977U 22025X   22222.91667824 -.00026424  00000-0 -16478-2 0  9991","MEAN_MOTION_DDOT":"0.0000000000000","PERIOD":"95.437","OBJECT_ID":"2022-025X","MEAN_MOTION":"15.08849204","SEMIMAJOR_AXIS":"6917.852","MEAN_MOTION_DOT":"-0.00026424"},{"PERIAPSIS":"538.353","EPOCH":"2022-08-10T22:00:00.999936","REV_AT_EPOCH":"130","BSTAR":"-0.00041209000000","MEAN_ANOMALY":"81.5283","OBJECT_TYPE":"PAYLOAD","INCLINATION":"53.2174","TIME_SYSTEM":"UTC","FILE":"3533963","ARG_OF_PERICENTER":"63.1703","ELEMENT_SET_NO":"999","GP_ID":"209996654","ECCENTRICITY":"0.00018530","EPHEMERIS_TYPE":"0","APOAPSIS":"540.917","COUNTRY_CODE":"US","DECAY_DATE":null,"LAUNCH_DATE":"2022-03-09","NORAD_CAT_ID":"51978","MEAN_MOTION":"15.08876051","MEAN_MOTION_DOT":"-0.00006847","SEMIMAJOR_AXIS":"6917.770","TLE_LINE1":"1 51978U 22025Y   22222.91667824 -.00006847  00000-0 -41209-3 0  9990","RA_OF_ASC_NODE":"145.4444","CENTER_NAME":"EARTH","PERIOD":"95.435","OBJECT_ID":"2022-025Y","MEAN_MOTION_DDOT":"0.0000000000000","CLASSIFICATION_TYPE":"U","TLE_LINE2":"2 51978  53.2174 145.4444 0001853  63.1703  81.5283 15.08876051  1309","OBJECT_NAME":"STARLINK-3666","RCS_SIZE":"LARGE","MEAN_ELEMENT_THEORY":"SGP4","SITE":"AFETR","REF_FRAME":"TEME"},{"ELEMENT_SET_NO":"999","ECCENTRICITY":"0.00024900","GP_ID":"209996904","APOAPSIS":"541.445","COUNTRY_CODE":"US","DECAY_DATE":null,"EPHEMERIS_TYPE":"0","NORAD_CAT_ID":"51979","LAUNCH_DATE":"2022-03-09","PERIAPSIS":"538.000","EPOCH":"2022-08-10T22:00:00.999936","OBJECT_TYPE":"PAYLOAD","BSTAR":"-0.00149330000000","REV_AT_EPOCH":"130","MEAN_ANOMALY":"353.7266","ARG_OF_PERICENTER":"71.0276","FILE":"3533963","INCLINATION":"53.2175","TIME_SYSTEM":"UTC","TLE_LINE2":"2 51979  53.2175 145.4582 0002490  71.0276 353.7266 15.08847506  1303","OBJECT_NAME":"STARLINK-3656","CLASSIFICATION_TYPE":"U","MEAN_ELEMENT_THEORY":"SGP4","RCS_SIZE":"LARGE","REF_FRAME":"TEME","SITE":"AFETR","MEAN_MOTION":"15.08847506","SEMIMAJOR_AXIS":"6917.857","MEAN_MOTION_DOT":"-0.00023982","RA_OF_ASC_NODE":"145.4582","CENTER_NAME":"EARTH","TLE_LINE1":"1 51979U 22025Z   22222.91667824 -.00023982  00000-0 -14933-2 0  9993","MEAN_MOTION_DDOT":"0.0000000000000","PERIOD":"95.437","OBJECT_ID":"2022-025Z"},{"MEAN_MOTION_DDOT":"0.0000000000000","OBJECT_ID":"2022-025AA","PERIOD":"95.437","CENTER_NAME":"EARTH","RA_OF_ASC_NODE":"145.4440","TLE_LINE1":"1 51980U 22025AA  22222.91667824 -.00019687  00000-0 -12221-2 0  9990","MEAN_MOTION_DOT":"-0.00019687","SEMIMAJOR_AXIS":"6917.874","MEAN_MOTION":"15.08842103","REF_FRAME":"TEME","SITE":"AFETR","MEAN_ELEMENT_THEORY":"SGP4","RCS_SIZE":"LARGE","OBJECT_NAME":"STARLINK-3649","TLE_LINE2":"2 51980  53.2165 145.4440 0001821  70.6810 114.0658 15.08842103  1304","CLASSIFICATION_TYPE":"U","FILE":"3533963","ARG_OF_PERICENTER":"70.6810","TIME_SYSTEM":"UTC","INCLINATION":"53.2165","OBJECT_TYPE":"PAYLOAD","BSTAR":"-0.00122210000000","MEAN_ANOMALY":"114.0658","REV_AT_EPOCH":"130","EPOCH":"2022-08-10T22:00:00.999936","PERIAPSIS":"538.479","NORAD_CAT_ID":"51980","LAUNCH_DATE":"2022-03-09","DECAY_DATE":null,"COUNTRY_CODE":"US","APOAPSIS":"540.999","EPHEMERIS_TYPE":"0","ECCENTRICITY":"0.00018210","GP_ID":"209998155","ELEMENT_SET_NO":"999"},{"ELEMENT_SET_NO":"999","ECCENTRICITY":"0.00021010","GP_ID":"209972077","APOAPSIS":"541.178","DECAY_DATE":null,"COUNTRY_CODE":"US","EPHEMERIS_TYPE":"0","NORAD_CAT_ID":"51981","LAUNCH_DATE":"2022-03-09","PERIAPSIS":"538.271","EPOCH":"2022-08-10T22:00:00.999936","OBJECT_TYPE":"PAYLOAD","BSTAR":"-0.00147590000000","REV_AT_EPOCH":"2488","MEAN_ANOMALY":"52.6071","ARG_OF_PERICENTER":"52.1807","FILE":"3533843","INCLINATION":"53.2122","TIME_SYSTEM":"UTC","TLE_LINE2":"2 51981  53.2122 145.4704 0002101  52.1807  52.6071 15.08846972 24886","OBJECT_NAME":"STARLINK-3635","CLASSIFICATION_TYPE":"U","MEAN_ELEMENT_THEORY":"SGP4","RCS_SIZE":"LARGE","REF_FRAME":"TEME","SITE":"AFETR","MEAN_MOTION":"15.08846972","SEMIMAJOR_AXIS":"6917.859","MEAN_MOTION_DOT":"-0.00023706","RA_OF_ASC_NODE":"145.4704","CENTER_NAME":"EARTH","TLE_LINE1":"1 51981U 22025AB  22222.91667824 -.00023706  00000-0 -14759-2 0  9996","MEAN_MOTION_DDOT":"0.0000000000000","PERIOD":"95.437","OBJECT_ID":"2022-025AB"},{"LAUNCH_DATE":"2022-03-09","NORAD_CAT_ID":"51982","EPHEMERIS_TYPE":"0","APOAPSIS":"541.050","DECAY_DATE":null,"COUNTRY_CODE":"US","GP_ID":"209972091","ECCENTRICITY":"0.00018590","ELEMENT_SET_NO":"999","INCLINATION":"53.2170","TIME_SYSTEM":"UTC","ARG_OF_PERICENTER":"58.9491","FILE":"3533844","BSTAR":"-0.00113220000000","MEAN_ANOMALY":"145.8607","REV_AT_EPOCH":"2488","OBJECT_TYPE":"PAYLOAD","EPOCH":"2022-08-10T22:00:00.999936","PERIAPSIS":"538.478","SITE":"AFETR","REF_FRAME":"TEME","RCS_SIZE":"LARGE","MEAN_ELEMENT_THEORY":"SGP4","CLASSIFICATION_TYPE":"U","TLE_LINE2":"2 51982  53.2170 145.4430 0001859  58.9491 145.8607 15.08833816 24881","OBJECT_NAME":"STARLINK-3650","PERIOD":"95.438","OBJECT_ID":"2022-025AC","MEAN_MOTION_DDOT":"0.0000000000000","TLE_LINE1":"1 51982U 22025AC  22222.91667824 -.00018259  00000-0 -11322-2 0  9997","RA_OF_ASC_NODE":"145.4430","CENTER_NAME":"EARTH","MEAN_MOTION_DOT":"-0.00018259","SEMIMAJOR_AXIS":"6917.899","MEAN_MOTION":"15.08833816"},{"NORAD_CAT_ID":"51983","LAUNCH_DATE":"2022-03-09","COUNTRY_CODE":"US","DECAY_DATE":null,"APOAPSIS":"541.039","EPHEMERIS_TYPE":"0","ECCENTRICITY":"0.00019570","GP_ID":"209997404","ELEMENT_SET_NO":"999","FILE":"3533963","ARG_OF_PERICENTER":"71.0871","TIME_SYSTEM":"UTC","INCLINATION":"53.2137","OBJECT_TYPE":"PAYLOAD","MEAN_ANOMALY":"53.7156","BSTAR":"-0.00345400000000","REV_AT_EPOCH":"130","EPOCH":"2022-08-10T22:00:00.999936","PERIAPSIS":"538.331","REF_FRAME":"TEME","SITE":"AFETR","MEAN_ELEMENT_THEORY":"SGP4","RCS_SIZE":"LARGE","OBJECT_NAME":"STARLINK-3655","TLE_LINE2":"2 51983  53.2137 145.4604 0001957  71.0871  53.7156 15.08859835  1302","CLASSIFICATION_TYPE":"U","MEAN_MOTION_DDOT":"0.0000000000000","OBJECT_ID":"2022-025AD","PERIOD":"95.436","CENTER_NAME":"EARTH","RA_OF_ASC_NODE":"145.4604","TLE_LINE1":"1 51983U 22025AD  22222.91667824 -.00054871  00000-0 -34540-2 0  9995","SEMIMAJOR_AXIS":"6917.820","MEAN_MOTION_DOT":"-0.00054871","MEAN_MOTION":"15.08859835"},{"COUNTRY_CODE":"US","DECAY_DATE":null,"APOAPSIS":"541.346","EPHEMERIS_TYPE":"0","NORAD_CAT_ID":"51984","LAUNCH_DATE":"2022-03-09","ELEMENT_SET_NO":"999","ECCENTRICITY":"0.00023450","GP_ID":"209997656","OBJECT_TYPE":"PAYLOAD","BSTAR":"-0.00109770000000","REV_AT_EPOCH":"130","MEAN_ANOMALY":"260.6794","ARG_OF_PERICENTER":"64.0707","FILE":"3533963","TIME_SYSTEM":"UTC","INCLINATION":"53.2172","PERIAPSIS":"538.101","EPOCH":"2022-08-10T22:00:00.999936","MEAN_ELEMENT_THEORY":"SGP4","RCS_SIZE":"LARGE","REF_FRAME":"TEME","SITE":"AFETR","OBJECT_NAME":"STARLINK-3664","TLE_LINE2":"2 51984  53.2172 145.4461 0002345  64.0707 260.6794 15.08847103  1307","CLASSIFICATION_TYPE":"U","CENTER_NAME":"EARTH","RA_OF_ASC_NODE":"145.4461","TLE_LINE1":"1 51984U 22025AE  22222.91667824 -.00017720  00000-0 -10977-2 0  9996","MEAN_MOTION_DDOT":"0.0000000000000","OBJECT_ID":"2022-025AE","PERIOD":"95.437","MEAN_MOTION":"15.08847103","MEAN_MOTION_DOT":"-0.00017720","SEMIMAJOR_AXIS":"6917.859"}];
